<?xml version="1.0" encoding="UTF-8"?>
<gpx version="1.1"
     creator="CoMaps route plan"
     xmlns="http://www.topografix.com/GPX/1/1"
     xmlns:xsi="http://www.w3.org/2001/XMLSchema-instance"
     xsi:schemaLocation="http://www.topografix.com/GPX/1/1 https://www.topografix.com/GPX/1/1/gpx.xsd">
  <metadata>
    <name>Зерноград → Москва — Роснефть АИ-95</name>
    <desc>OSM/CoMaps отвечает за геометрию и навигацию; Роснефть — за идентичность АЗС, где она официально подтверждена; ГдеБЕНЗ — browser-only live-проверка.</desc>
    <link href="https://rosneft-azs.ru/stations"><text>Роснефть — официальный поиск АЗС</text></link>
    <link href="https://gdebenz.ru/trassa/m4-don"><text>ГдеБЕНЗ — М-4 «Дон»</text></link>
    <link href="https://gdebenz.ru/fuel/ai-95"><text>ГдеБЕНЗ — АИ-95</text></link>
  </metadata>

  <wpt lat="46.846525" lon="40.304033">
    <name>Старт — Зерноград</name>
    <desc>Зерноград, Ростовская область</desc>
  </wpt>

  <wpt lat="50.174728" lon="40.407089">
    <name>Роснефть АЗС №50 — М-4, 711 км</name>
    <desc>АИ-95. Координата привязана в CoMaps/OSM. Идентификатор №50 подтверждён внешним точным координатным каталогом; свежий официальный public ID Роснефти не подтверждён.</desc>
    <link href="https://rosneft-azs.ru/stations"><text>Роснефть — поиск АЗС</text></link>
    <link href="https://gdebenz.ru/trassa/m4-don"><text>ГдеБЕНЗ — live-проверка М-4</text></link>
    <link href="https://gdebenz.ru/fuel/ai-95"><text>ГдеБЕНЗ — АИ-95</text></link>
  </wpt>

  <wpt lat="52.376106" lon="38.894249">
    <name>Роснефть АЗК №281 — М-4, 424 км</name>
    <desc>АИ-95. Официально подтверждённый идентификатор Роснефти: АЗК №281, Большое Панарино, 424 км, зд. 94а.</desc>
    <link href="https://rosneft-azs.ru/stations"><text>Роснефть — официальный поиск АЗС</text></link>
    <link href="https://gdebenz.ru/trassa/m4-don"><text>ГдеБЕНЗ — live-проверка М-4</text></link>
    <link href="https://gdebenz.ru/fuel/ai-95"><text>ГдеБЕНЗ — АИ-95</text></link>
  </wpt>

  <wpt lat="54.850270" lon="38.039720">
    <name>Роснефть MJ247 — М-4, 108 км</name>
    <desc>АИ-95. Официально подтверждённый идентификатор Роснефти: MJ247, 108 км Москва—Ростов—Дон, левая сторона.</desc>
    <link href="https://rosneft-azs.ru/stations"><text>Роснефть — официальный поиск АЗС</text></link>
    <link href="https://gdebenz.ru/gde-zapravitsya/stupino"><text>ГдеБЕНЗ — live-проверка Ступино</text></link>
    <link href="https://gdebenz.ru/fuel/ai-95"><text>ГдеБЕНЗ — АИ-95</text></link>
  </wpt>

  <wpt lat="55.83214267736634" lon="37.55670929207553">
    <name>Финиш — Лиственничная аллея, 2Б</name>
    <desc>Москва, Лиственничная аллея, дом 2Б</desc>
  </wpt>

  <rte>
    <name>Зерноград → Москва — Роснефть АИ-95</name>
    <desc>Точки маршрута с источниками OSM → Rosneft ID → GdeBenz live.</desc>
    <rtept lat="46.846525" lon="40.304033"><name>Зерноград</name></rtept>
    <rtept lat="50.174728" lon="40.407089">
      <name>Роснефть АЗС №50 · М-4 711 км · АИ-95</name>
      <link href="https://gdebenz.ru/trassa/m4-don"><text>Проверить live на ГдеБЕНЗ</text></link>
    </rtept>
    <rtept lat="52.376106" lon="38.894249">
      <name>Роснефть АЗК №281 · М-4 424 км · АИ-95</name>
      <link href="https://gdebenz.ru/trassa/m4-don"><text>Проверить live на ГдеБЕНЗ</text></link>
    </rtept>
    <rtept lat="54.850270" lon="38.039720">
      <name>Роснефть MJ247 · М-4 108 км · АИ-95</name>
      <link href="https://gdebenz.ru/gde-zapravitsya/stupino"><text>Проверить live на ГдеБЕНЗ</text></link>
    </rtept>
    <rtept lat="55.83214267736634" lon="37.55670929207553"><name>Москва, Лиственничная аллея 2Б</name></rtept>
  </rte>
</gpx>
